STARLINK-5318           
1 55304U 23010AM  25244.15631087  .00000892  00000+0  82541-4 0  9993
2 55304  70.0007 142.1477 0002939 269.5925  90.4897 14.98332670144885
STARLINK-5316           
1 55305U 23010AN  25244.15216230  .00000408  00000+0  41982-4 0  9990
2 55305  70.0004 142.5380 0003035 271.1479  88.9332 14.98336970144884
STARLINK-5295           
1 55306U 23010AP  25244.12272092  .00000784  00000+0  73480-4 0  9991
2 55306  69.9998 122.5607 0002604 267.7932  92.2929 14.98335046145378
STARLINK-5288           
1 55307U 23010AQ  25244.06014131 -.00000486  00000+0 -32911-4 0  9998
2 55307  70.0001 122.7446 0002864 270.1273  89.9558 14.98326692145361
STARLINK-5315           
1 55309U 23010AS  25244.07681083 -.00002890  00000+0 -23451-3 0  9996
2 55309  69.9998 122.3998 0003181 270.6193  89.4601 14.98326940145373
STARLINK-5309           
1 55310U 23010AT  25244.04761852 -.00000402  00000+0 -25919-4 0  9997
2 55310  70.0002 122.6990 0002835 269.9085  90.1749 14.98325328145365
STARLINK-5312           
1 55311U 23010AU  25244.11854973  .00000680  00000+0  64735-4 0  9998
2 55311  70.0001 122.5458 0002792 266.7471  93.3368 14.98329704146241
STARLINK-5296           
1 55312U 23010AV  25244.08932036  .00000929  00000+0  85610-4 0  9993
2 55312  69.9999 122.3291 0002568 273.4483  86.6382 14.98334878146246
STARLINK-5313           
1 55313U 23010AW  25244.10602460  .00000507  00000+0  50259-4 0  9995
2 55313  70.0001 122.5012 0002590 269.3431  90.7431 14.98336646146245
STARLINK-5305           
1 55314U 23010AX  25244.11019950  .00000921  00000+0  84994-4 0  9996
2 55314  70.0000 122.5131 0002529 272.4816  87.6053 14.98334023146243
STARLINK-4623           
1 55315U 23010AY  25244.12295183 -.00000147  00000+0 -45059-5 0  9994
2 55315  70.0004 142.4334 0002759 259.6421 100.4427 14.98326086144863
STARLINK-5257           
1 55316U 23010AZ  25244.08098260 -.00001557  00000+0 -12277-3 0  9997
2 55316  70.0002 122.4280 0002857 271.7269  88.3562 14.98321214146240
STARLINK-5265           
1 55317U 23010BA  25244.10185123  .00000128  00000+0  18523-4 0  9998
2 55317  70.0001 122.5135 0002946 271.0653  89.0169 14.98334931146240
STARLINK-5180           
1 55318U 23010BB  25244.09768688  .00001305  00000+0  11719-3 0  9997
2 55318  69.9998 122.4710 0003004 272.0316  88.0499 14.98315836146242
STARLINK-5196           
1 55319U 23010BC  25244.09353135 -.00003508  00000+0 -28649-3 0  9994
2 55319  70.0002 122.4562 0003134 278.7062  81.3742 14.98306619146248
HAWK-6B                 
1 55324U 23011A   25244.24360678  .00008474  00000+0  40584-3 0  9995
2 55324  40.5140 232.5253 0002812 227.2126 132.8445 15.18944576143838
HAWK-6C                 
1 55326U 23011C   25244.24305673  .00008614  00000+0  41239-3 0  9995
2 55326  40.4826 229.9082 0002020 230.5977 129.4652 15.18942857143845
HAWK-6A                 
1 55327U 23011D   25244.24299869  .00008640  00000+0  41362-3 0  9991
2 55327  40.4982 231.2544 0002287 242.4465 117.6111 15.18943113143842
STARLINK-5492           
1 55331U 23013A   25244.28732225  .00000658  00000+0  63775-4 0  9994
2 55331  43.0037 249.9015 0001303 270.3628  89.7065 15.02536263144299
STARLINK-5491           
1 55332U 23013B   25244.26870679  .00001254  00000+0  10787-3 0  9996
2 55332  43.0031 236.7409 0001679 287.0193  73.0465 15.02538978143365
STARLINK-5493           
1 55333U 23013C   25244.28177528  .00001655  00000+0  13757-3 0  9997
2 55333  43.0032 249.8587 0001232 265.0668  95.0034 15.02535083143211
STARLINK-5652           
1 55334U 23013D   25244.28397942  .00000478  00000+0  50483-4 0  9992
2 55334  43.0034 249.7776 0001482 271.5174  88.5498 15.02535757143213
STARLINK-5660           
1 55335U 23013E   25244.27844009  .00001093  00000+0  95999-4 0  9998
2 55335  43.0029 249.8339 0001296 277.9982  82.0713 15.02537835143212
STARLINK-5655           
1 55336U 23013F   25244.27868977  .00000257  00000+0  34063-4 0  9995
2 55336  43.0024 236.7340 0001204 271.6456  88.4249 15.02535346143366
STARLINK-5667           
1 55337U 23013G   25244.25871339  .00000387  00000+0  43686-4 0  9995
2 55337  43.0035 236.6313 0001349 269.8828  90.1860 15.02538155143360
STARLINK-5658           
1 55338U 23013H   25244.07679020  .00000676  00000+0  65113-4 0  9999
2 55338  43.0037 250.8991 0001352 269.8926  90.1761 15.02535289143181
STARLINK-5671           
1 55339U 23013J   25244.07123907  .00000255  00000+0  33942-4 0  9996
2 55339  43.0022 250.8578 0001226 277.3418  82.7285 15.02538176143183
STARLINK-5675           
1 55340U 23013K   25244.05902952 -.00000299  00000+0 -70407-5 0  9999
2 55340  43.0021 250.7719 0001297 272.5078  87.5616 15.02539554143189
STARLINK-5670           
1 55341U 23013L   25244.07345944  .00000889  00000+0  80899-4 0  9992
2 55341  43.0029 250.8752 0001293 270.9354  89.1340 15.02537284143181
STARLINK-5657           
1 55342U 23013M   25244.06792208  .00002403  00000+0  19289-3 0  9999
2 55342  43.0020 250.8312 0001545 276.6259  83.4407 15.02537758143189
