OBJECT_NAME,OBJECT_ID,EPOCH,MEAN_MOTION,ECCENTRICITY,INCLINATION,RA_OF_ASC_NODE,ARG_OF_PERICENTER,MEAN_ANOMALY,EPHEMERIS_TYPE,CLASSIFICATION_TYPE,NORAD_CAT_ID,ELEMENT_SET_NO,REV_AT_EPOCH,BSTAR,MEAN_MOTION_DOT,MEAN_MOTION_DDOT
STARLINK-5318,2023-010AM,2025-09-01T03:45:05.259168,14.98332670,.00029397,70.0007,142.1477,269.5925,90.4897,0,U,55304,999,14488,.82541441E-4,.892E-5,0
STARLINK-5316,2023-010AN,2025-09-01T03:39:06.822720,14.98336970,.00030351,70.0004,142.5380,271.1479,88.9332,0,U,55305,999,14488,.41982342E-4,.408E-5,0
STARLINK-5295,2023-010AP,2025-09-01T02:56:43.087488,14.98335046,.00026047,69.9998,122.5607,267.7932,92.2929,0,U,55306,999,14537,.73480282E-4,.784E-5,0
STARLINK-5288,2023-010AQ,2025-09-01T01:26:36.209184,14.98326692,.00028645,70.0001,122.7446,270.1273,89.9558,0,U,55307,999,14536,-.32911455E-4,-.486E-5,0
STARLINK-5315,2023-010AS,2025-09-01T01:50:36.455712,14.98326940,.00031818,69.9998,122.3998,270.6193,89.4601,0,U,55309,999,14537,-.23450556E-3,-.289E-4,0
STARLINK-5309,2023-010AT,2025-09-01T01:08:34.240128,14.98325328,.00028356,70.0002,122.6990,269.9085,90.1749,0,U,55310,999,14536,-.25919414E-4,-.402E-5,0
STARLINK-5312,2023-010AU,2025-09-01T02:50:42.696672,14.98329704,.00027925,70.0001,122.5458,266.7471,93.3368,0,U,55311,999,14624,.64735355E-4,.68E-5,0
STARLINK-5296,2023-010AV,2025-09-01T02:08:37.279104,14.98334878,.0002568,69.9999,122.3291,273.4483,86.6382,0,U,55312,999,14624,.85609863E-4,.929E-5,0
STARLINK-5313,2023-010AW,2025-09-01T02:32:40.525440,14.98336646,.00025908,70.0001,122.5012,269.3431,90.7431,0,U,55313,999,14624,.50258873E-4,.507E-5,0
STARLINK-5305,2023-010AX,2025-09-01T02:38:41.236800,14.98334023,.00025299,70.0000,122.5131,272.4816,87.6053,0,U,55314,999,14624,.84994215E-4,.921E-5,0
STARLINK-4623,2023-010AY,2025-09-01T02:57:03.038112,14.98326086,.00027591,70.0004,142.4334,259.6421,100.4427,0,U,55315,999,14486,-.450586E-5,-.147E-5,0
STARLINK-5257,2023-010AZ,2025-09-01T01:56:36.896640,14.98321214,.00028578,70.0002,122.4280,271.7269,88.3562,0,U,55316,999,14624,-.12277088E-3,-.1557E-4,0
STARLINK-5265,2023-010BA,2025-09-01T02:26:39.946272,14.98334931,.00029461,70.0001,122.5135,271.0653,89.0169,0,U,55317,999,14624,.18522798E-4,.128E-5,0
STARLINK-5180,2023-010BB,2025-09-01T02:20:40.146432,14.98315836,.00030048,69.9998,122.4710,272.0316,88.0499,0,U,55318,999,14624,.11718971E-3,.1305E-4,0
STARLINK-5196,2023-010BC,2025-09-01T02:14:41.108640,14.98306619,.0003134,70.0002,122.4562,278.7062,81.3742,0,U,55319,999,14624,-.28648503E-3,-.3508E-4,0
HAWK-6B,2023-011A,2025-09-01T05:50:47.625792,15.18944576,.00028128,40.5140,232.5253,227.2126,132.8445,0,U,55324,999,14383,.4058369E-3,.8474E-4,0
HAWK-6C,2023-011C,2025-09-01T05:50:00.101472,15.18942857,.00020203,40.4826,229.9082,230.5977,129.4652,0,U,55326,999,14384,.41238791E-3,.8614E-4,0
HAWK-6A,2023-011D,2025-09-01T05:49:55.086816,15.18943113,.00022873,40.4982,231.2544,242.4465,117.6111,0,U,55327,999,14384,.41361823E-3,.864E-4,0
STARLINK-5492,2023-013A,2025-09-01T06:53:44.642400,15.02536263,.00013032,43.0037,249.9015,270.3628,89.7065,0,U,55331,999,14429,.637754E-4,.658E-5,0
STARLINK-5491,2023-013B,2025-09-01T06:26:56.266656,15.02538978,.00016794,43.0031,236.7409,287.0193,73.0465,0,U,55332,999,14336,.10787262E-3,.1254E-4,0
STARLINK-5493,2023-013C,2025-09-01T06:45:45.384192,15.02535083,.00012327,43.0032,249.8587,265.0668,95.0034,0,U,55333,999,14321,.13757183E-3,.1655E-4,0
STARLINK-5652,2023-013D,2025-09-01T06:48:55.821888,15.02535757,.00014826,43.0034,249.7776,271.5174,88.5498,0,U,55334,999,14321,.50482511E-4,.478E-5,0
STARLINK-5660,2023-013E,2025-09-01T06:40:57.223776,15.02537835,.00012969,43.0029,249.8339,277.9982,82.0713,0,U,55335,999,14321,.95999418E-4,.1093E-4,0
STARLINK-5655,2023-013F,2025-09-01T06:41:18.796128,15.02535346,.00012043,43.0024,236.7340,271.6456,88.4249,0,U,55336,999,14336,.34063191E-4,.257E-5,0
STARLINK-5667,2023-013G,2025-09-01T06:12:32.836896,15.02538155,.00013499,43.0035,236.6313,269.8828,90.1860,0,U,55337,999,14336,.43685934E-4,.387E-5,0
STARLINK-5658,2023-013H,2025-09-01T01:50:34.673280,15.02535289,.00013523,43.0037,250.8991,269.8926,90.1761,0,U,55338,999,14318,.65113344E-4,.676E-5,0
STARLINK-5671,2023-013J,2025-09-01T01:42:35.055648,15.02538176,.00012269,43.0022,250.8578,277.3418,82.7285,0,U,55339,999,14318,.3394213E-4,.255E-5,0
STARLINK-5675,2023-013K,2025-09-01T01:25:00.150528,15.02539554,.00012978,43.0021,250.7719,272.5078,87.5616,0,U,55340,999,14318,-.704068E-5,-.299E-5,0
STARLINK-5670,2023-013L,2025-09-01T01:45:46.895616,15.02537284,.00012939,43.0029,250.8752,270.9354,89.1340,0,U,55341,999,14318,.80898517E-4,.889E-5,0
STARLINK-5657,2023-013M,2025-09-01T01:37:48.467712,15.02537758,.00015458,43.0020,250.8312,276.6259,83.4407,0,U,55342,999,14318,.19288962E-3,.2403E-4,0
